[{"OBJECT_NAME":"LDPE-1","OBJECT_ID":"2021-118B","EPOCH":"2026-04-26T05:33:38.636352","MEAN_MOTION":0.98983545,"ECCENTRICITY":9.78e-5,"INCLINATION":5.5595,"RA_OF_ASC_NODE":63.5258,"ARG_OF_PERICENTER":287.3946,"MEAN_ANOMALY":252.2332,"EPHEMERIS_TYPE":0,"CLASSIFICATION_TYPE":"U","NORAD_CAT_ID":49818,"ELEMENT_SET_NO":999,"REV_AT_EPOCH":1612,"BSTAR":0,"MEAN_MOTION_DOT":-1.96e-6,"MEAN_MOTION_DDOT":0},{"OBJECT_NAME":"EXPRESS AMU-7","OBJECT_ID":"2021-123A","EPOCH":"2026-04-26T12:32:45.884256","MEAN_MOTION":1.00272046,"ECCENTRICITY":5.9e-5,"INCLINATION":0.0172,"RA_OF_ASC_NODE":256.2987,"ARG_OF_PERICENTER":41.5388,"MEAN_ANOMALY":249.8823,"EPHEMERIS_TYPE":0,"CLASSIFICATION_TYPE":"U","NORAD_CAT_ID":50001,"ELEMENT_SET_NO":999,"REV_AT_EPOCH":1602,"BSTAR":0,"MEAN_MOTION_DOT":-2.55e-6,"MEAN_MOTION_DDOT":0},{"OBJECT_NAME":"EXPRESS AMU-3","OBJECT_ID":"2021-123B","EPOCH":"2026-04-25T02:55:17.984352","MEAN_MOTION":1.00272881,"ECCENTRICITY":3.616e-5,"INCLINATION":0.021,"RA_OF_ASC_NODE":264.3165,"ARG_OF_PERICENTER":8.6245,"MEAN_ANOMALY":87.0456,"EPHEMERIS_TYPE":0,"CLASSIFICATION_TYPE":"U","NORAD_CAT_ID":50002,"ELEMENT_SET_NO":999,"REV_AT_EPOCH":650,"BSTAR":0,"MEAN_MOTION_DOT":-3.36e-6,"MEAN_MOTION_DDOT":0},{"OBJECT_NAME":"TIANLIAN 2-02","OBJECT_ID":"2021-124A","EPOCH":"2026-04-26T07:32:03.928704","MEAN_MOTION":1.00271985,"ECCENTRICITY":0.000305,"INCLINATION":0.6686,"RA_OF_ASC_NODE":86.8391,"ARG_OF_PERICENTER":220.8555,"MEAN_ANOMALY":190.589,"EPHEMERIS_TYPE":0,"CLASSIFICATION_TYPE":"U","NORAD_CAT_ID":50005,"ELEMENT_SET_NO":999,"REV_AT_EPOCH":1610,"BSTAR":0,"MEAN_MOTION_DOT":-2.6e-7,"MEAN_MOTION_DDOT":0},{"OBJECT_NAME":"TURKSAT 5B","OBJECT_ID":"2021-126A","EPOCH":"2026-04-26T12:03:26.197056","MEAN_MOTION":1.0027237,"ECCENTRICITY":0.0004621,"INCLINATION":0.0718,"RA_OF_ASC_NODE":345.323,"ARG_OF_PERICENTER":1.7781,"MEAN_ANOMALY":90.2556,"EPHEMERIS_TYPE":0,"CLASSIFICATION_TYPE":"U","NORAD_CAT_ID":50212,"ELEMENT_SET_NO":999,"REV_AT_EPOCH":1578,"BSTAR":0,"MEAN_MOTION_DOT":1.34e-6,"MEAN_MOTION_DDOT":0},{"OBJECT_NAME":"INMARSAT 6-F1","OBJECT_ID":"2021-128A","EPOCH":"2026-04-25T00:19:07.969152","MEAN_MOTION":1.00270545,"ECCENTRICITY":2.61e-5,"INCLINATION":0.0184,"RA_OF_ASC_NODE":246.893,"ARG_OF_PERICENTER":316.143,"MEAN_ANOMALY":98.5326,"EPHEMERIS_TYPE":0,"CLASSIFICATION_TYPE":"U","NORAD_CAT_ID":50319,"ELEMENT_SET_NO":999,"REV_AT_EPOCH":1572,"BSTAR":0,"MEAN_MOTION_DOT":-1.86e-6,"MEAN_MOTION_DDOT":0},{"OBJECT_NAME":"SHIYAN-12 01 (SY-12 01)","OBJECT_ID":"2021-129A","EPOCH":"2026-04-25T17:31:16.607712","MEAN_MOTION":1.00063631,"ECCENTRICITY":0.0003211,"INCLINATION":3.5412,"RA_OF_ASC_NODE":80.5936,"ARG_OF_PERICENTER":272.7108,"MEAN_ANOMALY":226.059,"EPHEMERIS_TYPE":0,"CLASSIFICATION_TYPE":"U","NORAD_CAT_ID":50321,"ELEMENT_SET_NO":999,"REV_AT_EPOCH":1597,"BSTAR":0,"MEAN_MOTION_DOT":-2.98e-6,"MEAN_MOTION_DDOT":0},{"OBJECT_NAME":"SHIYAN-12 02 (SY-12 02)","OBJECT_ID":"2021-129B","EPOCH":"2026-04-25T15:33:02.879136","MEAN_MOTION":1.00472127,"ECCENTRICITY":7.75e-5,"INCLINATION":3.541,"RA_OF_ASC_NODE":80.6085,"ARG_OF_PERICENTER":31.8667,"MEAN_ANOMALY":22.8478,"EPHEMERIS_TYPE":0,"CLASSIFICATION_TYPE":"U","NORAD_CAT_ID":50322,"ELEMENT_SET_NO":999,"REV_AT_EPOCH":1597,"BSTAR":0,"MEAN_MOTION_DOT":8.6e-7,"MEAN_MOTION_DDOT":0},{"OBJECT_NAME":"TJS-9","OBJECT_ID":"2021-135A","EPOCH":"2026-04-26T13:15:32.518944","MEAN_MOTION":1.00271143,"ECCENTRICITY":0.0003911,"INCLINATION":0.0195,"RA_OF_ASC_NODE":313.763,"ARG_OF_PERICENTER":120.1374,"MEAN_ANOMALY":116.7707,"EPHEMERIS_TYPE":0,"CLASSIFICATION_TYPE":"U","NORAD_CAT_ID":50574,"ELEMENT_SET_NO":999,"REV_AT_EPOCH":1591,"BSTAR":0,"MEAN_MOTION_DOT":-3.11e-6,"MEAN_MOTION_DDOT":0},{"OBJECT_NAME":"GOES 18","OBJECT_ID":"2022-021A","EPOCH":"2026-04-26T08:58:14.704320","MEAN_MOTION":1.00272543,"ECCENTRICITY":4.57e-5,"INCLINATION":0.0261,"RA_OF_ASC_NODE":86.4448,"ARG_OF_PERICENTER":2.5991,"MEAN_ANOMALY":122.8889,"EPHEMERIS_TYPE":0,"CLASSIFICATION_TYPE":"U","NORAD_CAT_ID":51850,"ELEMENT_SET_NO":999,"REV_AT_EPOCH":607,"BSTAR":0,"MEAN_MOTION_DOT":8.4e-7,"MEAN_MOTION_DDOT":0},{"OBJECT_NAME":"ZHONGXING-6D","OBJECT_ID":"2022-038A","EPOCH":"2026-04-26T01:23:23.842176","MEAN_MOTION":1.00270651,"ECCENTRICITY":0.0001563,"INCLINATION":0.0189,"RA_OF_ASC_NODE":243.4684,"ARG_OF_PERICENTER":99.357,"MEAN_ANOMALY":17.1607,"EPHEMERIS_TYPE":0,"CLASSIFICATION_TYPE":"U","NORAD_CAT_ID":52255,"ELEMENT_SET_NO":999,"REV_AT_EPOCH":1490,"BSTAR":0,"MEAN_MOTION_DOT":-3.67e-6,"MEAN_MOTION_DDOT":0},{"OBJECT_NAME":"NILESAT 301","OBJECT_ID":"2022-061A","EPOCH":"2026-04-26T08:23:58.775712","MEAN_MOTION":1.00272773,"ECCENTRICITY":0.0005897,"INCLINATION":0.0601,"RA_OF_ASC_NODE":39.0314,"ARG_OF_PERICENTER":341.2084,"MEAN_ANOMALY":313.1254,"EPHEMERIS_TYPE":0,"CLASSIFICATION_TYPE":"U","NORAD_CAT_ID":52817,"ELEMENT_SET_NO":999,"REV_AT_EPOCH":1421,"BSTAR":0,"MEAN_MOTION_DOT":-7.0e-7,"MEAN_MOTION_DDOT":0},{"OBJECT_NAME":"CMS-02 (GSAT-24)","OBJECT_ID":"2022-067A","EPOCH":"2026-04-26T12:15:02.582784","MEAN_MOTION":1.00270819,"ECCENTRICITY":0.0002237,"INCLINATION":0.0121,"RA_OF_ASC_NODE":213.327,"ARG_OF_PERICENTER":134.642,"MEAN_ANOMALY":133.3373,"EPHEMERIS_TYPE":0,"CLASSIFICATION_TYPE":"U","NORAD_CAT_ID":52903,"ELEMENT_SET_NO":999,"REV_AT_EPOCH":1409,"BSTAR":0,"MEAN_MOTION_DOT":-1.77e-6,"MEAN_MOTION_DDOT":0},{"OBJECT_NAME":"MEASAT 3D","OBJECT_ID":"2022-067B","EPOCH":"2026-04-26T12:17:32.345088","MEAN_MOTION":1.00270868,"ECCENTRICITY":0.0002306,"INCLINATION":0.0424,"RA_OF_ASC_NODE":34.0838,"ARG_OF_PERICENTER":330.9232,"MEAN_ANOMALY":125.4007,"EPHEMERIS_TYPE":0,"CLASSIFICATION_TYPE":"U","NORAD_CAT_ID":52904,"ELEMENT_SET_NO":999,"REV_AT_EPOCH":1413,"BSTAR":0,"MEAN_MOTION_DOT":-2.54e-6,"MEAN_MOTION_DDOT":0},{"OBJECT_NAME":"SES-22","OBJECT_ID":"2022-071A","EPOCH":"2026-04-26T10:03:38.912832","MEAN_MOTION":1.00273702,"ECCENTRICITY":9.92e-5,"INCLINATION":0.0223,"RA_OF_ASC_NODE":273.437,"ARG_OF_PERICENTER":117.3379,"MEAN_ANOMALY":195.5501,"EPHEMERIS_TYPE":0,"CLASSIFICATION_TYPE":"U","NORAD_CAT_ID":52933,"ELEMENT_SET_NO":999,"REV_AT_EPOCH":700,"BSTAR":0,"MEAN_MOTION_DOT":9.2e-7,"MEAN_MOTION_DDOT":0},{"OBJECT_NAME":"WFOV (USA 332)","OBJECT_ID":"2022-073A","EPOCH":"2026-04-26T10:42:40.764096","MEAN_MOTION":1.00273337,"ECCENTRICITY":0.0002122,"INCLINATION":3.5803,"RA_OF_ASC_NODE":79.1657,"ARG_OF_PERICENTER":243.8197,"MEAN_ANOMALY":171.3923,"EPHEMERIS_TYPE":0,"CLASSIFICATION_TYPE":"U","NORAD_CAT_ID":52940,"ELEMENT_SET_NO":999,"REV_AT_EPOCH":1385,"BSTAR":0,"MEAN_MOTION_DOT":-3.71e-6,"MEAN_MOTION_DDOT":0},{"OBJECT_NAME":"TIANLIAN 2-03","OBJECT_ID":"2022-078A","EPOCH":"2026-04-26T08:29:05.786016","MEAN_MOTION":1.00272658,"ECCENTRICITY":0.0002507,"INCLINATION":0.5396,"RA_OF_ASC_NODE":75.4975,"ARG_OF_PERICENTER":286.7455,"MEAN_ANOMALY":349.9579,"EPHEMERIS_TYPE":0,"CLASSIFICATION_TYPE":"U","NORAD_CAT_ID":53100,"ELEMENT_SET_NO":999,"REV_AT_EPOCH":1402,"BSTAR":0,"MEAN_MOTION_DOT":6.0e-7,"MEAN_MOTION_DDOT":0}]
