LDPE-1                  
1 49818U 21118B   26116.23169718 -.00000196  00000+0  00000+0 0  9991
2 49818   5.5595  63.5258 0000978 287.3946 252.2332  0.98983545 16123
EXPRESS AMU-7           
1 50001U 21123A   26116.52275329 -.00000255  00000+0  00000+0 0  9997
2 50001   0.0172 256.2987 0000590  41.5388 249.8823  1.00272046 16027
EXPRESS AMU-3           
1 50002U 21123B   26115.12173593 -.00000336  00000+0  00000+0 0  9993
2 50002   0.0210 264.3165 0000361   8.6245  87.0456  1.00272881  6504
TIANLIAN 2-02           
1 50005U 21124A   26116.31393436 -.00000026  00000+0  00000+0 0  9995
2 50005   0.6686  86.8391 0003050 220.8555 190.5890  1.00271985 16101
TURKSAT 5B              
1 50212U 21126A   26116.50238654  .00000134  00000+0  00000+0 0  9997
2 50212   0.0718 345.3230 0004621   1.7781  90.2556  1.00272370 15785
INMARSAT 6-F1           
1 50319U 21128A   26115.01328668 -.00000186  00000+0  00000+0 0  9995
2 50319   0.0184 246.8930 0000261 316.1430  98.5326  1.00270545 15724
SHIYAN-12 01 (SY-12 01) 
1 50321U 21129A   26115.73005333 -.00000298  00000+0  00000+0 0  9993
2 50321   3.5412  80.5936 0003211 272.7108 226.0590  1.00063631 15979
SHIYAN-12 02 (SY-12 02) 
1 50322U 21129B   26115.64794999  .00000086  00000+0  00000+0 0  9991
2 50322   3.5410  80.6085 0000775  31.8667  22.8478  1.00472127 15971
TJS-9                   
1 50574U 21135A   26116.55245971 -.00000311  00000+0  00000+0 0  9991
2 50574   0.0195 313.7630 0003911 120.1374 116.7707  1.00271143 15917
GOES 18                 
1 51850U 22021A   26116.37378130  .00000084  00000+0  00000+0 0  9994
2 51850   0.0261  86.4448 0000457   2.5991 122.8889  1.00272543  6071
ZHONGXING-6D            
1 52255U 22038A   26116.05791484 -.00000367  00000+0  00000+0 0  9993
2 52255   0.0189 243.4684 0001563  99.3570  17.1607  1.00270651 14906
NILESAT 301             
1 52817U 22061A   26116.34998583 -.00000070  00000+0  00000+0 0  9995
2 52817   0.0601  39.0314 0005897 341.2084 313.1254  1.00272773 14219
CMS-02 (GSAT-24)        
1 52903U 22067A   26116.51044656 -.00000177  00000+0  00000+0 0  9997
2 52903   0.0121 213.3270 0002237 134.6420 133.3373  1.00270819 14092
MEASAT 3D               
1 52904U 22067B   26116.51217992 -.00000254  00000+0  00000+0 0  9999
2 52904   0.0424  34.0838 0002306 330.9232 125.4007  1.00270868 14131
SES-22                  
1 52933U 22071A   26116.41920038  .00000092  00000+0  00000+0 0  9996
2 52933   0.0223 273.4370 0000992 117.3379 195.5501  1.00273702  7003
WFOV (USA 332)          
1 52940U 22073A   26116.44630514 -.00000371  00000+0  00000+0 0  9997
2 52940   3.5803  79.1657 0002122 243.8197 171.3923  1.00273337 13856
TIANLIAN 2-03           
1 53100U 22078A   26116.35353919  .00000060  00000+0  00000+0 0  9996
2 53100   0.5396  75.4975 0002507 286.7455 349.9579  1.00272658 14026
